{
  "type": "FeatureCollection",
  "features": [
    {
      "type": "Feature",
      "properties": {
        "norad_id": 66583,
        "name": "STARLINK-35941",
        "group": "last-30-days",
        "lat": -38.255094242722016,
        "lon": 18.355228808813216,
        "alt_km": 418.4311974525863,
        "timestamp": "2025-12-09T09:46:46.422529+00:00",
        "meta_object_name": "STARLINK-35941",
        "meta_object_id": "2025-268AC",
        "meta_epoch": "2025-12-08T22:00:03.000096",
        "meta_mean_motion": 15.51663029,
        "meta_eccentricity": 0.0001936,
        "meta_inclination": 43.0004,
        "meta_ra_of_asc_node": 143.4339,
        "meta_arg_of_pericenter": 260.9277,
        "meta_mean_anomaly": 120.9756,
        "meta_ephemeris_type": 0,
        "meta_classification_type": "U",
        "meta_norad_cat_id": 66583,
        "meta_element_set_no": 999,
        "meta_rev_at_epoch": 405,
        "meta_bstar": -0.02807307,
        "meta_mean_motion_dot": -0.01546447,
        "meta_mean_motion_ddot": 0,
        "tle_line1": "1 66583U 25268AC  25342.91670139 -.01546447  00000+0 -28073-1 0  9996",
        "tle_line2": "2 66583  43.0004 143.4339 0001936 260.9277 120.9756 15.51663029  4057"
      },
      "geometry": {
        "type": "Point",
        "coordinates": [
          18.355228808813216,
          -38.255094242722016
        ]
      }
    },
    {
      "type": "Feature",
      "properties": {
        "norad_id": 66584,
        "name": "STARLINK-35939",
        "group": "last-30-days",
        "lat": -38.92868782660837,
        "lon": 20.644209421232425,
        "alt_km": 418.3775216480317,
        "timestamp": "2025-12-09T09:46:46.422541+00:00",
        "meta_object_name": "STARLINK-35939",
        "meta_object_id": "2025-268AD",
        "meta_epoch": "2025-12-08T22:00:03.000096",
        "meta_mean_motion": 15.51661279,
        "meta_eccentricity": 0.00020245,
        "meta_inclination": 43.0005,
        "meta_ra_of_asc_node": 143.4296,
        "meta_arg_of_pericenter": 260.4551,
        "meta_mean_anomaly": 123.364,
        "meta_ephemeris_type": 0,
        "meta_classification_type": "U",
        "meta_norad_cat_id": 66584,
        "meta_element_set_no": 999,
        "meta_rev_at_epoch": 405,
        "meta_bstar": -0.027994094,
        "meta_mean_motion_dot": -0.01542462,
        "meta_mean_motion_ddot": 0,
        "tle_line1": "1 66584U 25268AD  25342.91670139 -.01542462  00000+0 -27994-1 0  9991",
        "tle_line2": "2 66584  43.0005 143.4296 0002024 260.4551 123.3640 15.51661279  4054"
      },
      "geometry": {
        "type": "Point",
        "coordinates": [
          20.644209421232425,
          -38.92868782660837
        ]
      }
    },
    {
      "type": "Feature",
      "properties": {
        "norad_id": 66585,
        "name": "STARLINK-35963",
        "group": "last-30-days",
        "lat": -39.556932714586814,
        "lon": 22.975947653527296,
        "alt_km": 418.5470414451047,
        "timestamp": "2025-12-09T09:46:46.422551+00:00",
        "meta_object_name": "STARLINK-35963",
        "meta_object_id": "2025-268AE",
        "meta_epoch": "2025-12-08T22:00:03.000096",
        "meta_mean_motion": 15.51663285,
        "meta_eccentricity": 0.00018883,
        "meta_inclination": 43.0007,
        "meta_ra_of_asc_node": 143.4246,
        "meta_arg_of_pericenter": 268.2197,
        "meta_mean_anomaly": 117.5168,
        "meta_ephemeris_type": 0,
        "meta_classification_type": "U",
        "meta_norad_cat_id": 66585,
        "meta_element_set_no": 999,
        "meta_rev_at_epoch": 405,
        "meta_bstar": -0.027995961,
        "meta_mean_motion_dot": -0.01542594,
        "meta_mean_motion_ddot": 0,
        "tle_line1": "1 66585U 25268AE  25342.91670139 -.01542594  00000+0 -27996-1 0  9990",
        "tle_line2": "2 66585  43.0007 143.4246 0001888 268.2197 117.5168 15.51663285  4050"
      },
      "geometry": {
        "type": "Point",
        "coordinates": [
          22.975947653527296,
          -39.556932714586814
        ]
      }
    },
    {
      "type": "Feature",
      "properties": {
        "norad_id": 66586,
        "name": "TJS-21",
        "group": "last-30-days",
        "lat": 61.66286281780383,
        "lon": -128.21122304623316,
        "alt_km": 36966.346994765925,
        "timestamp": "2025-12-09T09:46:46.422564+00:00",
        "meta_object_name": "TJS-21",
        "meta_object_id": "2025-269A",
        "meta_epoch": "2025-12-07T17:43:38.148672",
        "meta_mean_motion": 2.00608507,
        "meta_eccentricity": 0.6806665,
        "meta_inclination": 63.2904,
        "meta_ra_of_asc_node": 162.9189,
        "meta_arg_of_pericenter": 269.7757,
        "meta_mean_anomaly": 18.6616,
        "meta_ephemeris_type": 0,
        "meta_classification_type": "U",
        "meta_norad_cat_id": 66586,
        "meta_element_set_no": 999,
        "meta_rev_at_epoch": 33,
        "meta_bstar": 3.2363,
        "meta_mean_motion_dot": 1.641e-05,
        "meta_mean_motion_ddot": 0,
        "tle_line1": "1 66586U 25269A   25341.73863598  .00001641  00000+0  32363+1 0  9997",
        "tle_line2": "2 66586  63.2904 162.9189 6806665 269.7757  18.6616  2.00608507   335"
      },
      "geometry": {
        "type": "Point",
        "coordinates": [
          -128.21122304623316,
          61.66286281780383
        ]
      }
    },
    {
      "type": "Feature",
      "properties": {
        "norad_id": 66587,
        "name": "CZ-3B R/B",
        "group": "last-30-days",
        "lat": 19.762903883052843,
        "lon": -172.90973282911116,
        "alt_km": 31156.312510085543,
        "timestamp": "2025-12-09T09:46:46.422578+00:00",
        "meta_object_name": "CZ-3B R/B",
        "meta_object_id": "2025-269B",
        "meta_epoch": "2025-12-07T20:37:07.872096",
        "meta_mean_motion": 2.02777724,
        "meta_eccentricity": 0.75198691,
        "meta_inclination": 51.3451,
        "meta_ra_of_asc_node": 170.7737,
        "meta_arg_of_pericenter": 227.8445,
        "meta_mean_anomaly": 38.1645,
        "meta_ephemeris_type": 0,
        "meta_classification_type": "U",
        "meta_norad_cat_id": 66587,
        "meta_element_set_no": 999,
        "meta_rev_at_epoch": 35,
        "meta_bstar": 0.0012817032,
        "meta_mean_motion_dot": 0.00047793,
        "meta_mean_motion_ddot": -4.8519e-08,
        "tle_line1": "1 66587U 25269B   25341.85911889  .00047793 -48519-7  12817-2 0  9996",
        "tle_line2": "2 66587  51.3451 170.7737 7519869 227.8445  38.1645  2.02777724   355"
      },
      "geometry": {
        "type": "Point",
        "coordinates": [
          -172.90973282911116,
          19.762903883052843
        ]
      }
    },
    {
      "type": "Feature",
      "properties": {
        "norad_id": 66588,
        "name": "STARLINK-36076",
        "group": "last-30-days",
        "lat": 39.59072629247802,
        "lon": -30.304334909938945,
        "alt_km": 392.898469893471,
        "timestamp": "2025-12-09T09:46:46.422591+00:00",
        "meta_object_name": "STARLINK-36076",
        "meta_object_id": "2025-270A",
        "meta_epoch": "2025-12-08T22:00:03.000096",
        "meta_mean_motion": 15.5848621,
        "meta_eccentricity": 0.00010528,
        "meta_inclination": 42.9989,
        "meta_ra_of_asc_node": 215.1598,
        "meta_arg_of_pericenter": 255.8121,
        "meta_mean_anomaly": 340.0175,
        "meta_ephemeris_type": 0,
        "meta_classification_type": "U",
        "meta_norad_cat_id": 66588,
        "meta_element_set_no": 999,
        "meta_rev_at_epoch": 378,
        "meta_bstar": -0.029028902,
        "meta_mean_motion_dot": -0.01997016,
        "meta_mean_motion_ddot": 0,
        "tle_line1": "1 66588U 25270A   25342.91670139 -.01997016  00000+0 -29029-1 0  9998",
        "tle_line2": "2 66588  42.9989 215.1598 0001052 255.8121 340.0175 15.58486210  3787"
      },
      "geometry": {
        "type": "Point",
        "coordinates": [
          -30.304334909938945,
          39.59072629247802
        ]
      }
    },
    {
      "type": "Feature",
      "properties": {
        "norad_id": 66589,
        "name": "STARLINK-35447",
        "group": "last-30-days",
        "lat": 38.29119474210454,
        "lon": -25.66745509496713,
        "alt_km": 393.1609642545018,
        "timestamp": "2025-12-09T09:46:46.422602+00:00",
        "meta_object_name": "STARLINK-35447",
        "meta_object_id": "2025-270B",
        "meta_epoch": "2025-12-08T22:00:03.000096",
        "meta_mean_motion": 15.58481826,
        "meta_eccentricity": 0.00011617,
        "meta_inclination": 42.999,
        "meta_ra_of_asc_node": 215.1501,
        "meta_arg_of_pericenter": 259.4824,
        "meta_mean_anomaly": 340.184,
        "meta_ephemeris_type": 0,
        "meta_classification_type": "U",
        "meta_norad_cat_id": 66589,
        "meta_element_set_no": 999,
        "meta_rev_at_epoch": 389,
        "meta_bstar": -0.028931818,
        "meta_mean_motion_dot": -0.01990952,
        "meta_mean_motion_ddot": 0,
        "tle_line1": "1 66589U 25270B   25342.91670139 -.01990952  00000+0 -28932-1 0  9993",
        "tle_line2": "2 66589  42.9990 215.1501 0001161 259.4824 340.1840 15.58481826  3895"
      },
      "geometry": {
        "type": "Point",
        "coordinates": [
          -25.66745509496713,
          38.29119474210454
        ]
      }
    }
  ]
}